CCSDS_OMM_VERS = 2.0
CREATION_DATE  = 
ORIGINATOR     = 

OBJECT_NAME    = CZ-6A R/B
OBJECT_ID      = 2026-051B
CENTER_NAME    = EARTH
REF_FRAME      = TEME
TIME_SYSTEM    = UTC
MEAN_ELEMENT_THEORY = SGP/SGP4

EPOCH          = 2026-04-04T13:33:30.076416
MEAN_MOTION    = 14.56385219
ECCENTRICITY   = .0187336
INCLINATION    = 142.0305
RA_OF_ASC_NODE = 343.2172
ARG_OF_PERICENTER = 237.5255
MEAN_ANOMALY   = 120.7239

EPHEMERIS_TYPE = 0
CLASSIFICATION_TYPE = U
NORAD_CAT_ID   = 68197
ELEMENT_SET_NO = 999
REV_AT_EPOCH   = 293
BSTAR          = .19495E-3
MEAN_MOTION_DOT = .1411E-4
MEAN_MOTION_DDOT = 0

CCSDS_OMM_VERS = 2.0
CREATION_DATE  = 
ORIGINATOR     = 

OBJECT_NAME    = 2026-052A
OBJECT_ID      = 2026-052A
CENTER_NAME    = EARTH
REF_FRAME      = TEME
TIME_SYSTEM    = UTC
MEAN_ELEMENT_THEORY = SGP/SGP4

EPOCH          = 2026-04-04T20:00:53.635104
MEAN_MOTION    = 15.10070816
ECCENTRICITY   = .0013674
INCLINATION    = 97.5352
RA_OF_ASC_NODE = 170.7672
ARG_OF_PERICENTER = 194.2255
MEAN_ANOMALY   = 165.8591

EPHEMERIS_TYPE = 0
CLASSIFICATION_TYPE = U
NORAD_CAT_ID   = 68198
ELEMENT_SET_NO = 999
REV_AT_EPOCH   = 297
BSTAR          = .71299E-3
MEAN_MOTION_DOT = .11578E-3
MEAN_MOTION_DDOT = 0

CCSDS_OMM_VERS = 2.0
CREATION_DATE  = 
ORIGINATOR     = 

OBJECT_NAME    = YUXING-3 06
OBJECT_ID      = 2026-052B
CENTER_NAME    = EARTH
REF_FRAME      = TEME
TIME_SYSTEM    = UTC
MEAN_ELEMENT_THEORY = SGP/SGP4

EPOCH          = 2026-04-04T15:11:46.311360
MEAN_MOTION    = 15.10196522
ECCENTRICITY   = .001266
INCLINATION    = 97.5354
RA_OF_ASC_NODE = 170.5736
ARG_OF_PERICENTER = 196.0638
MEAN_ANOMALY   = 164.0191

EPHEMERIS_TYPE = 0
CLASSIFICATION_TYPE = U
NORAD_CAT_ID   = 68199
ELEMENT_SET_NO = 999
REV_AT_EPOCH   = 294
BSTAR          = .53803398E-3
MEAN_MOTION_DOT = .8746E-4
MEAN_MOTION_DDOT = 0

CCSDS_OMM_VERS = 2.0
CREATION_DATE  = 
ORIGINATOR     = 

OBJECT_NAME    = 2026-052C
OBJECT_ID      = 2026-052C
CENTER_NAME    = EARTH
REF_FRAME      = TEME
TIME_SYSTEM    = UTC
MEAN_ELEMENT_THEORY = SGP/SGP4

EPOCH          = 2026-04-04T19:55:37.711776
MEAN_MOTION    = 15.10311710
ECCENTRICITY   = .0012399
INCLINATION    = 97.5349
RA_OF_ASC_NODE = 170.7717
ARG_OF_PERICENTER = 197.8051
MEAN_ANOMALY   = 162.2746

EPHEMERIS_TYPE = 0
CLASSIFICATION_TYPE = U
NORAD_CAT_ID   = 68200
ELEMENT_SET_NO = 999
REV_AT_EPOCH   = 296
BSTAR          = .48277E-3
MEAN_MOTION_DOT = .7864E-4
MEAN_MOTION_DDOT = 0

CCSDS_OMM_VERS = 2.0
CREATION_DATE  = 
ORIGINATOR     = 

OBJECT_NAME    = 2026-052D
OBJECT_ID      = 2026-052D
CENTER_NAME    = EARTH
REF_FRAME      = TEME
TIME_SYSTEM    = UTC
MEAN_ELEMENT_THEORY = SGP/SGP4

EPOCH          = 2026-04-04T19:52:03.846720
MEAN_MOTION    = 15.10567882
ECCENTRICITY   = .0011621
INCLINATION    = 97.5355
RA_OF_ASC_NODE = 170.7730
ARG_OF_PERICENTER = 194.3403
MEAN_ANOMALY   = 165.7498

EPHEMERIS_TYPE = 0
CLASSIFICATION_TYPE = U
NORAD_CAT_ID   = 68201
ELEMENT_SET_NO = 999
REV_AT_EPOCH   = 297
BSTAR          = .69545E-3
MEAN_MOTION_DOT = .11441E-3
MEAN_MOTION_DDOT = 0

CCSDS_OMM_VERS = 2.0
CREATION_DATE  = 
ORIGINATOR     = 

OBJECT_NAME    = 2026-052E
OBJECT_ID      = 2026-052E
CENTER_NAME    = EARTH
REF_FRAME      = TEME
TIME_SYSTEM    = UTC
MEAN_ELEMENT_THEORY = SGP/SGP4

EPOCH          = 2026-04-04T11:55:05.693952
MEAN_MOTION    = 15.10559593
ECCENTRICITY   = .00112507
INCLINATION    = 97.5348
RA_OF_ASC_NODE = 170.4486
ARG_OF_PERICENTER = 200.0561
MEAN_ANOMALY   = 160.0228

EPHEMERIS_TYPE = 0
CLASSIFICATION_TYPE = U
NORAD_CAT_ID   = 68202
ELEMENT_SET_NO = 999
REV_AT_EPOCH   = 292
BSTAR          = .80432902E-3
MEAN_MOTION_DOT = .13241E-3
MEAN_MOTION_DDOT = 0

CCSDS_OMM_VERS = 2.0
CREATION_DATE  = 
ORIGINATOR     = 

OBJECT_NAME    = 2026-052F
OBJECT_ID      = 2026-052F
CENTER_NAME    = EARTH
REF_FRAME      = TEME
TIME_SYSTEM    = UTC
MEAN_ELEMENT_THEORY = SGP/SGP4

EPOCH          = 2026-04-04T21:22:40.041408
MEAN_MOTION    = 15.10824582
ECCENTRICITY   = .0010615
INCLINATION    = 97.5349
RA_OF_ASC_NODE = 170.8477
ARG_OF_PERICENTER = 190.6352
MEAN_ANOMALY   = 169.4655

EPHEMERIS_TYPE = 0
CLASSIFICATION_TYPE = U
NORAD_CAT_ID   = 68203
ELEMENT_SET_NO = 999
REV_AT_EPOCH   = 298
BSTAR          = .59914E-3
MEAN_MOTION_DOT = .9913E-4
MEAN_MOTION_DDOT = 0

CCSDS_OMM_VERS = 2.0
CREATION_DATE  = 
ORIGINATOR     = 

OBJECT_NAME    = 2026-052G
OBJECT_ID      = 2026-052G
CENTER_NAME    = EARTH
REF_FRAME      = TEME
TIME_SYSTEM    = UTC
MEAN_ELEMENT_THEORY = SGP/SGP4

EPOCH          = 2026-04-04T21:21:45.887616
MEAN_MOTION    = 15.10872807
ECCENTRICITY   = .0010273
INCLINATION    = 97.5360
RA_OF_ASC_NODE = 170.8440
ARG_OF_PERICENTER = 193.0800
MEAN_ANOMALY   = 167.0165

EPHEMERIS_TYPE = 0
CLASSIFICATION_TYPE = U
NORAD_CAT_ID   = 68204
ELEMENT_SET_NO = 999
REV_AT_EPOCH   = 298
BSTAR          = .70367E-3
MEAN_MOTION_DOT = .11671E-3
MEAN_MOTION_DDOT = 0

CCSDS_OMM_VERS = 2.0
CREATION_DATE  = 
ORIGINATOR     = 

OBJECT_NAME    = KZ-11 R/B
OBJECT_ID      = 2026-052H
CENTER_NAME    = EARTH
REF_FRAME      = TEME
TIME_SYSTEM    = UTC
MEAN_ELEMENT_THEORY = SGP/SGP4

EPOCH          = 2026-04-04T20:37:17.590368
MEAN_MOTION    = 14.67677490
ECCENTRICITY   = .054376
INCLINATION    = 97.3398
RA_OF_ASC_NODE = 169.5033
ARG_OF_PERICENTER = 309.1345
MEAN_ANOMALY   = 46.2704

EPHEMERIS_TYPE = 0
CLASSIFICATION_TYPE = U
NORAD_CAT_ID   = 68205
ELEMENT_SET_NO = 999
REV_AT_EPOCH   = 289
BSTAR          = .4378E-3
MEAN_MOTION_DOT = .29153E-3
MEAN_MOTION_DDOT = .20355E-5

CCSDS_OMM_VERS = 2.0
CREATION_DATE  = 
ORIGINATOR     = 

OBJECT_NAME    = 2026-052J
OBJECT_ID      = 2026-052J
CENTER_NAME    = EARTH
REF_FRAME      = TEME
TIME_SYSTEM    = UTC
MEAN_ELEMENT_THEORY = SGP/SGP4

EPOCH          = 2026-04-04T20:24:07.762176
MEAN_MOTION    = 14.69364802
ECCENTRICITY   = .0537489
INCLINATION    = 97.3394
RA_OF_ASC_NODE = 169.5134
ARG_OF_PERICENTER = 309.1236
MEAN_ANOMALY   = 46.3336

EPHEMERIS_TYPE = 0
CLASSIFICATION_TYPE = U
NORAD_CAT_ID   = 68206
ELEMENT_SET_NO = 999
REV_AT_EPOCH   = 289
BSTAR          = .13268E-2
MEAN_MOTION_DOT = .91243E-3
MEAN_MOTION_DDOT = .32019E-5

CCSDS_OMM_VERS = 2.0
CREATION_DATE  = 
ORIGINATOR     = 

OBJECT_NAME    = STARLINK-36986
OBJECT_ID      = 2026-053A
CENTER_NAME    = EARTH
REF_FRAME      = TEME
TIME_SYSTEM    = UTC
MEAN_ELEMENT_THEORY = SGP/SGP4

EPOCH          = 2026-04-04T21:02:50.673696
MEAN_MOTION    = 15.80777470
ECCENTRICITY   = .0001323
INCLINATION    = 97.2842
RA_OF_ASC_NODE = 330.4686
ARG_OF_PERICENTER = 85.1605
MEAN_ANOMALY   = 274.9814

EPHEMERIS_TYPE = 0
CLASSIFICATION_TYPE = U
NORAD_CAT_ID   = 68207
ELEMENT_SET_NO = 999
REV_AT_EPOCH   = 419
BSTAR          = .57582E-3
MEAN_MOTION_DOT = .111377E-2
MEAN_MOTION_DDOT = 0

CCSDS_OMM_VERS = 2.0
CREATION_DATE  = 
ORIGINATOR     = 

OBJECT_NAME    = STARLINK-37009
OBJECT_ID      = 2026-053B
CENTER_NAME    = EARTH
REF_FRAME      = TEME
TIME_SYSTEM    = UTC
MEAN_ELEMENT_THEORY = SGP/SGP4

EPOCH          = 2026-04-04T19:30:35.009280
MEAN_MOTION    = 15.80873193
ECCENTRICITY   = .0001554
INCLINATION    = 97.2842
RA_OF_ASC_NODE = 330.4021
ARG_OF_PERICENTER = 89.3827
MEAN_ANOMALY   = 270.7619

EPHEMERIS_TYPE = 0
CLASSIFICATION_TYPE = U
NORAD_CAT_ID   = 68208
ELEMENT_SET_NO = 999
REV_AT_EPOCH   = 418
BSTAR          = .83359E-3
MEAN_MOTION_DOT = .162974E-2
MEAN_MOTION_DDOT = 0

