CZ-6A R/B               
1 68197U 26051B   26094.56493144  .00001411  00000+0  19495-3 0  9999
2 68197 142.0305 343.2172 0187336 237.5255 120.7239 14.56385219  2939
2026-052A               
1 68198U 26052A   26094.83395411  .00011578  00000+0  71299-3 0  9994
2 68198  97.5352 170.7672 0013674 194.2255 165.8591 15.10070816  2976
YUXING-3 06             
1 68199U 26052B   26094.63317490  .00008746  00000+0  53803-3 0  9998
2 68199  97.5354 170.5736 0012660 196.0638 164.0191 15.10196522  2944
2026-052C               
1 68200U 26052C   26094.83029759  .00007864  00000+0  48277-3 0  9990
2 68200  97.5349 170.7717 0012399 197.8051 162.2746 15.10311710  2965
2026-052D               
1 68201U 26052D   26094.82782230  .00011441  00000+0  69545-3 0  9997
2 68201  97.5355 170.7730 0011621 194.3403 165.7498 15.10567882  2974
2026-052E               
1 68202U 26052E   26094.49659368  .00013241  00000+0  80433-3 0  9995
2 68202  97.5348 170.4486 0011250 200.0561 160.0228 15.10559593  2924
2026-052F               
1 68203U 26052F   26094.89074122  .00009913  00000+0  59914-3 0  9990
2 68203  97.5349 170.8477 0010615 190.6352 169.4655 15.10824582  2982
2026-052G               
1 68204U 26052G   26094.89011444  .00011671  00000+0  70367-3 0  9998
2 68204  97.5360 170.8440 0010273 193.0800 167.0165 15.10872807  2984
KZ-11 R/B               
1 68205U 26052H   26094.85923137  .00029153  20355-5  43780-3 0  9990
2 68205  97.3398 169.5033 0543760 309.1345  46.2704 14.67677490  2892
2026-052J               
1 68206U 26052J   26094.85008984  .00091243  32019-5  13268-2 0  9991
2 68206  97.3394 169.5134 0537489 309.1236  46.3336 14.69364802  2895
STARLINK-36986          
1 68207U 26053A   26094.87697539  .00111377  00000+0  57582-3 0  9993
2 68207  97.2842 330.4686 0001323  85.1605 274.9814 15.80777470  4196
STARLINK-37009          
1 68208U 26053B   26094.81290520  .00162974  00000+0  83359-3 0  9997
2 68208  97.2842 330.4021 0001554  89.3827 270.7619 15.80873193  4183
